     2.11           N: GPS NAV DATA                         RINEX VERSION / TYPE
teqc  2019Feb25                         20221121 12:24:04UTCPGM / RUN BY / DATE
OSX ker:10.11.6|Core i5|gcc 4.3 -m64|OSX ker:10.10+|=+      COMMENT
    6.5193D-09  2.2352D-08 -5.9605D-08 -1.1921D-07          ION ALPHA
    8.6016D+04  9.8304D+04 -6.5536D+04 -5.2429D+05          ION BETA
    0.000000000000D+00 1.776356839400D-15   503808     1535 DELTA-UTC: A0,A1,T,W
                                                            END OF HEADER
13 09  6 11  0  0  0.0 2.991501241922D-04 7.958078640513D-13 0.000000000000D+00
    1.000000000000D+01 8.293750000000D+01 3.733726953286D-09 1.378223014921D+00
    4.353001713753D-06 4.161585238762D-03 4.062429070473D-06 5.153697685242D+03
    3.456000000000D+05-4.842877388000D-08 1.504766901936D+00-8.754432201386D-08
    9.946259578892D-01 3.166562500000D+02 1.588584525573D+00-7.857470152314D-09
    3.410856361573D-10 1.000000000000D+00 1.535000000000D+03 0.000000000000D+00
    2.000000000000D+00 0.000000000000D+00-1.117587089539D-08 1.000000000000D+01
    3.384180000000D+05 4.000000000000D+00
23 09  6 11  0  0  0.0 3.902078606188D-04 0.000000000000D+00 0.000000000000D+00
    1.030000000000D+02 8.578125000000D+01 4.300179119721D-09 6.427133306757D-01
    4.541128873825D-06 6.183519726619D-03 4.209578037262D-06 5.153603139877D+03
    3.456000000000D+05 1.210719347000D-07 1.452380121507D+00 3.725290298462D-09
    9.701333108836D-01 3.023750000000D+02 2.888883105326D+00-8.131052976708D-09
    3.239420649158D-10 1.000000000000D+00 1.535000000000D+03 0.000000000000D+00
    2.000000000000D+00 0.000000000000D+00-2.002343535423D-08 1.030000000000D+02
    3.384180000000D+05 4.000000000000D+00
24 09  6 11  0  0  0.0 1.958319917321D-04 2.955857780762D-12 0.000000000000D+00
    6.800000000000D+01-1.040625000000D+01 4.785556480493D-09 3.014446355928D+00
   -5.830079317093D-07 6.678834324703D-03 6.815418601036D-06 5.153668903351D+03
    3.456000000000D+05 1.862645149231D-08-5.968518246571D-01 2.607703208923D-08
    9.505874482171D-01 2.462500000000D+02-6.497021599371D-01-7.917829809393D-09
   -5.321650239522D-10 1.000000000000D+00 1.535000000000D+03 0.000000000000D+00
    2.800000000000D+00 0.000000000000D+00-1.396983861923D-09 6.800000000000D+01
    3.384180000000D+05 4.000000000000D+00
29 09  6 11  0  0  0.0 2.892501652241D-05 3.751665644813D-12 0.000000000000D+00
    5.300000000000D+01 1.225000000000D+01 4.699124308818D-09-1.904066235521D+00
    5.047768354416D-07 3.418043837883D-03 7.549300789833D-06 5.153663173676D+03
    3.456000000000D+05-9.313225746155D-09-1.669267183061D+00 1.285225152969D-07
    9.595288005917D-01 2.316562500000D+02-1.316716844987D+00-7.924972964077D-09
    2.978695503195D-10 1.000000000000D+00 1.535000000000D+03 0.000000000000D+00
    2.000000000000D+00 0.000000000000D+00-8.847564458847D-09 5.300000000000D+01
    3.384180000000D+05 4.000000000000D+00
25 09  6 11  0  0  0.0 4.565259441733D-04 1.818989403546D-11 0.000000000000D+00
    5.100000000000D+01-5.234375000000D+01 4.441256424728D-09-2.771005552327D+00
   -2.615153789520D-06 1.136435475200D-02 1.691281795502D-06 5.153651035309D+03
    3.456000000000D+05 7.823109626770D-08 2.400271923726D+00 1.974403858185D-07
    9.698416094073D-01 3.468437500000D+02-1.208264113919D+00-8.040692069956D-09
    5.035924052165D-11 1.000000000000D+00 1.535000000000D+03 0.000000000000D+00
    2.800000000000D+00 0.000000000000D+00-7.450580596924D-09 5.100000000000D+01
    3.384180000000D+05 4.000000000000D+00
 6 09  6 11  0  0  0.0 1.564859412611D-04 1.352873368887D-11 0.000000000000D+00
    9.300000000000D+01 7.156250000000D+00 5.349865700523D-09 2.869809734477D+00
    6.090849637985D-07 5.998916807584D-03 7.351860404015D-06 5.153700323105D+03
    3.456000000000D+05 2.253800630569D-07-1.741164896061D+00 1.117587089539D-08
    9.334049136155D-01 2.188437500000D+02-1.348067022894D+00-8.234985877359D-09
    3.153702792951D-10 1.000000000000D+00 1.535000000000D+03 0.000000000000D+00
    2.000000000000D+00 0.000000000000D+00-4.656612873077D-09 9.300000000000D+01
    3.384180000000D+05 4.000000000000D+00
 3 09  6 11  0  0  0.0 4.050126299262D-04 5.229594535194D-12 0.000000000000D+00
    1.400000000000D+01 5.781250000000D+00 5.600233272195D-09 4.328494754952D-01
    6.295740604401D-07 1.190099818632D-02 7.575377821922D-06 5.153630838394D+03
    3.456000000000D+05-3.539025783539D-08-1.808899874203D+00 1.136213541031D-07
    9.259662867840D-01 2.134687500000D+02 9.038147139335D-01-8.597143819834D-09
    2.510818871398D-10 1.000000000000D+00 1.535000000000D+03 0.000000000000D+00
    2.000000000000D+00 0.000000000000D+00-4.190951585770D-09 1.400000000000D+01
    3.384180000000D+05 4.000000000000D+00
21 09  6 11  0  0  0.0 9.078066796064D-06-2.160049916711D-12 0.000000000000D+00
    8.200000000000D+01-1.481250000000D+01 5.168072413817D-09-1.907108345872D+00
   -9.275972843170D-07 1.535730098840D-02 6.116926670074D-06 5.153602025986D+03
    3.456000000000D+05 5.401670932770D-08-6.292187554982D-01-1.955777406693D-07
    9.339265155938D-01 2.460000000000D+02-2.594268325735D+00-8.083908155794D-09
   -2.525105180766D-10 1.000000000000D+00 1.535000000000D+03 0.000000000000D+00
    2.000000000000D+00 0.000000000000D+00-1.210719347000D-08 8.200000000000D+01
    3.384180000000D+05 4.000000000000D+00
10 09  6 11  0  0  0.0-1.734774559736D-05-5.684341886081D-13 0.000000000000D+00
    6.900000000000D+01 6.321875000000D+01 4.198746323209D-09 1.705444804839D+00
    3.261491656303D-06 8.575457381085D-03 1.001730561256D-05 5.153620580673D+03
    3.456000000000D+05-1.247972249985D-07 4.234191412897D-01-7.450580596924D-09
    9.584909567671D-01 1.877812500000D+02 6.251827883440D-01-7.806753754058D-09
   -2.917978688382D-10 1.000000000000D+00 1.535000000000D+03 0.000000000000D+00
    2.800000000000D+00 0.000000000000D+00-2.793967723846D-09 6.900000000000D+01
    3.384180000000D+05 4.000000000000D+00
 7 09  6 11  0  0  0.0 1.729698851705D-05-6.821210263297D-13 0.000000000000D+00
    1.170000000000D+02-6.631250000000D+01 4.556975530608D-09-9.320171500268D-01
   -3.578141331673D-06 2.663285937160D-03 2.520158886909D-06 5.153667947769D+03
    3.456000000000D+05 5.215406417847D-08 2.494747302022D+00 7.450580596924D-09
    9.676644844813D-01 3.323750000000D+02 2.873997912406D+00-8.268915862108D-09
    3.928735076157D-12 1.000000000000D+00 1.535000000000D+03 0.000000000000D+00
    2.800000000000D+00 0.000000000000D+00-1.071020960808D-08 1.170000000000D+02
    3.384180000000D+05 4.000000000000D+00
19 09  6 11  0  0  0.0 2.291565760970D-05-1.250555214938D-12 0.000000000000D+00
    6.400000000000D+01 5.281250000000D+00 4.864488339751D-09 1.182475656503D+00
    3.781169652939D-07 5.654234322719D-03 6.658956408501D-06 5.153608970642D+03
    3.456000000000D+05 8.940696716309D-08-1.621437114496D+00-1.862645149231D-09
    9.569937917756D-01 2.419687500000D+02-3.533085992356D-01-8.053906906122D-09
    1.678641350722D-10 1.000000000000D+00 1.535000000000D+03 0.000000000000D+00
    2.000000000000D+00 0.000000000000D+00-1.443549990654D-08 6.400000000000D+01
    3.410520000000D+05 4.000000000000D+00
 8 09  6 11  0  0  0.0-2.071848139167D-04-1.705302565824D-12 0.000000000000D+00
    3.400000000000D+01-7.521875000000D+01 4.076955535848D-09-1.662011151813D+00
   -4.177913069725D-06 1.062324771192D-02 3.561377525330D-06 5.153646884918D+03
    3.456000000000D+05 2.980232238770D-08 2.555399758314D+00-2.011656761169D-07
    9.889073379714D-01 3.280937500000D+02 2.992493141602D+00-8.021048394576D-09
    5.214502919263D-11 1.000000000000D+00 1.535000000000D+03 0.000000000000D+00
    2.000000000000D+00 0.000000000000D+00-3.725290298462D-09 3.400000000000D+01
    3.425220000000D+05 4.000000000000D+00
